start=new Date('2021-10-25T00:00:00.000Z').valueOf();
sats=[{"PERIAPSIS":"546.436","NORAD_CAT_ID":"45686","PERIOD":"95.592","RCS_SIZE":"LARGE","TLE_LINE1":"1 45686U 20035AF  21297.76529457  .00000946  00000-0  82365-4 0  9992","OBJECT_NAME":"STARLINK-1404","INCLINATION":"53.0547","ECCENTRICITY":"0.00011160","SEMIMAJOR_AXIS":"6925.344","RA_OF_ASC_NODE":"25.4965","ELEMENT_SET_NO":"999","DECAY_DATE":null,"REF_FRAME":"TEME","FILE":"3182768","SITE":"AFETR","MEAN_MOTION_DDOT":"0.0000000000000","OBJECT_TYPE":"PAYLOAD","LAUNCH_DATE":"2020-06-04","BSTAR":"0.00008236500000","APOAPSIS":"547.981","CENTER_NAME":"EARTH","EPHEMERIS_TYPE":"0","MEAN_ELEMENT_THEORY":"SGP4","OBJECT_ID":"2020-035AF","TLE_LINE2":"2 45686  53.0547  25.4965 0001116  86.5558 273.5559 15.06401632 78180","COUNTRY_CODE":"US","GP_ID":"188104305","CLASSIFICATION_TYPE":"U","MEAN_ANOMALY":"273.5559","MEAN_MOTION_DOT":"0.00000946","ARG_OF_PERICENTER":"86.5558","TIME_SYSTEM":"UTC","MEAN_MOTION":"15.06401632","EPOCH":"2021-10-24T18:22:01.450848","REV_AT_EPOCH":"7818"},{"MEAN_MOTION":"15.05588646","EPOCH":"2021-10-24T16:48:46.096128","REV_AT_EPOCH":"7828","LAUNCH_DATE":"2020-06-04","APOAPSIS":"550.621","BSTAR":"-0.00000256420000","OBJECT_ID":"2020-035AG","MEAN_ELEMENT_THEORY":"SGP4","TLE_LINE2":"2 45687  53.0032  15.7860 0001327  67.0714 293.0414 15.05588646 78286","CENTER_NAME":"EARTH","EPHEMERIS_TYPE":"0","TIME_SYSTEM":"UTC","GP_ID":"188104556","CLASSIFICATION_TYPE":"U","COUNTRY_CODE":"US","MEAN_ANOMALY":"293.0414","MEAN_MOTION_DOT":"-0.00000317","ARG_OF_PERICENTER":"67.0714","RA_OF_ASC_NODE":"15.7860","SEMIMAJOR_AXIS":"6927.836","ELEMENT_SET_NO":"999","ECCENTRICITY":"0.00013270","SITE":"AFETR","MEAN_MOTION_DDOT":"0.0000000000000","DECAY_DATE":null,"REF_FRAME":"TEME","FILE":"3182768","OBJECT_TYPE":"PAYLOAD","NORAD_CAT_ID":"45687","PERIOD":"95.644","PERIAPSIS":"548.782","RCS_SIZE":"LARGE","TLE_LINE1":"1 45687U 20035AG  21297.70053352 -.00000317  00000-0 -25642-5 0  9993","INCLINATION":"53.0032","OBJECT_NAME":"STARLINK-1406"},{"INCLINATION":"53.0554","OBJECT_NAME":"STARLINK-1408","TLE_LINE1":"1 45688U 20035AH  21297.75792862 -.00001459  00000-0 -79078-4 0  9994","RCS_SIZE":"LARGE","PERIOD":"95.593","NORAD_CAT_ID":"45688","PERIAPSIS":"546.379","OBJECT_TYPE":"PAYLOAD","MEAN_MOTION_DDOT":"0.0000000000000","SITE":"AFETR","FILE":"3182768","REF_FRAME":"TEME","DECAY_DATE":null,"SEMIMAJOR_AXIS":"6925.371","ELEMENT_SET_NO":"999","RA_OF_ASC_NODE":"25.5238","ECCENTRICITY":"0.00012370","TIME_SYSTEM":"UTC","MEAN_MOTION_DOT":"-0.00001459","ARG_OF_PERICENTER":"77.2903","GP_ID":"188103304","COUNTRY_CODE":"US","MEAN_ANOMALY":"282.8224","CLASSIFICATION_TYPE":"U","TLE_LINE2":"2 45688  53.0554  25.5238 0001237  77.2903 282.8224 15.06392697 78170","MEAN_ELEMENT_THEORY":"SGP4","OBJECT_ID":"2020-035AH","EPHEMERIS_TYPE":"0","CENTER_NAME":"EARTH","APOAPSIS":"548.093","BSTAR":"-0.00007907800000","LAUNCH_DATE":"2020-06-04","REV_AT_EPOCH":"7817","EPOCH":"2021-10-24T18:11:25.032768","MEAN_MOTION":"15.06392697"},{"MEAN_MOTION":"15.06407559","EPOCH":"2021-10-24T17:13:01.560288","REV_AT_EPOCH":"7808","LAUNCH_DATE":"2020-06-04","APOAPSIS":"547.961","BSTAR":"0.00011577000000","MEAN_ELEMENT_THEORY":"SGP4","OBJECT_ID":"2020-035AJ","TLE_LINE2":"2 45689  53.0546  25.7039 0001113  91.7861 268.3256 15.06407559 78088","CENTER_NAME":"EARTH","EPHEMERIS_TYPE":"0","TIME_SYSTEM":"UTC","GP_ID":"188103554","COUNTRY_CODE":"US","CLASSIFICATION_TYPE":"U","MEAN_ANOMALY":"268.3256","MEAN_MOTION_DOT":"0.00001444","ARG_OF_PERICENTER":"91.7861","SEMIMAJOR_AXIS":"6925.325","RA_OF_ASC_NODE":"25.7039","ELEMENT_SET_NO":"999","ECCENTRICITY":"0.00011130","SITE":"AFETR","MEAN_MOTION_DDOT":"0.0000000000000","REF_FRAME":"TEME","DECAY_DATE":null,"FILE":"3182768","OBJECT_TYPE":"PAYLOAD","NORAD_CAT_ID":"45689","PERIOD":"95.592","PERIAPSIS":"546.420","RCS_SIZE":"LARGE","TLE_LINE1":"1 45689U 20035AJ  21297.71737917  .00001444  00000-0  11577-3 0  9992","INCLINATION":"53.0546","OBJECT_NAME":"STARLINK-1413"},{"REV_AT_EPOCH":"7771","EPOCH":"2021-10-24T13:40:16.521024","MEAN_MOTION":"15.05578878","ARG_OF_PERICENTER":"106.1557","MEAN_MOTION_DOT":"0.00001475","COUNTRY_CODE":"US","GP_ID":"188079268","CLASSIFICATION_TYPE":"U","MEAN_ANOMALY":"253.9540","TIME_SYSTEM":"UTC","EPHEMERIS_TYPE":"0","CENTER_NAME":"EARTH","TLE_LINE2":"2 45690  53.0038  26.3702 0000995 106.1557 253.9540 15.05578878 77717","MEAN_ELEMENT_THEORY":"SGP4","OBJECT_ID":"2020-035AK","BSTAR":"0.00012039000000","APOAPSIS":"550.421","LAUNCH_DATE":"2020-06-04","OBJECT_TYPE":"PAYLOAD","FILE":"3182562","DECAY_DATE":null,"REF_FRAME":"TEME","MEAN_MOTION_DDOT":"0.0000000000000","SITE":"AFETR","ECCENTRICITY":"0.00009950","SEMIMAJOR_AXIS":"6927.866","RA_OF_ASC_NODE":"26.3702","ELEMENT_SET_NO":"999","OBJECT_NAME":"STARLINK-1414","INCLINATION":"53.0038","TLE_LINE1":"1 45690U 20035AK  21297.56963566  .00001475  00000-0  12039-3 0  9996","RCS_SIZE":"LARGE","PERIAPSIS":"549.042","PERIOD":"95.644","NORAD_CAT_ID":"45690"},{"OBJECT_TYPE":"PAYLOAD","FILE":"3182768","REF_FRAME":"TEME","DECAY_DATE":null,"MEAN_MOTION_DDOT":"0.0000000000000","SITE":"AFETR","ECCENTRICITY":"0.00012720","SEMIMAJOR_AXIS":"6925.358","ELEMENT_SET_NO":"999","RA_OF_ASC_NODE":"26.0810","OBJECT_NAME":"STARLINK-1415","INCLINATION":"53.0568","TLE_LINE1":"1 45691U 20035AL  21297.63629575  .00000274  00000-0  37278-4 0  9993","RCS_SIZE":"LARGE","PERIAPSIS":"546.342","PERIOD":"95.592","NORAD_CAT_ID":"45691","REV_AT_EPOCH":"7816","EPOCH":"2021-10-24T15:16:15.952800","MEAN_MOTION":"15.06396943","MEAN_MOTION_DOT":"0.00000274","ARG_OF_PERICENTER":"86.3745","GP_ID":"188104056","CLASSIFICATION_TYPE":"U","COUNTRY_CODE":"US","MEAN_ANOMALY":"273.7389","TIME_SYSTEM":"UTC","EPHEMERIS_TYPE":"0","CENTER_NAME":"EARTH","TLE_LINE2":"2 45691  53.0568  26.0810 0001272  86.3745 273.7389 15.06396943 78163","OBJECT_ID":"2020-035AL","MEAN_ELEMENT_THEORY":"SGP4","BSTAR":"0.00003727800000","APOAPSIS":"548.104","LAUNCH_DATE":"2020-06-04"},{"ECCENTRICITY":"0.00011250","ELEMENT_SET_NO":"999","SEMIMAJOR_AXIS":"6925.368","RA_OF_ASC_NODE":"26.1137","DECAY_DATE":null,"REF_FRAME":"TEME","FILE":"3182768","SITE":"AFETR","MEAN_MOTION_DDOT":"0.0000000000000","OBJECT_TYPE":"PAYLOAD","PERIAPSIS":"546.454","NORAD_CAT_ID":"45692","PERIOD":"95.593","RCS_SIZE":"LARGE","TLE_LINE1":"1 45692U 20035AM  21297.62892549 -.00000381  00000-0 -67071-5 0  9992","OBJECT_NAME":"STARLINK-1416","INCLINATION":"53.0563","MEAN_MOTION":"15.06393740","EPOCH":"2021-10-24T15:05:39.162336","REV_AT_EPOCH":"7815","LAUNCH_DATE":"2020-06-04","BSTAR":"-0.00000670710000","APOAPSIS":"548.012","CENTER_NAME":"EARTH","EPHEMERIS_TYPE":"0","MEAN_ELEMENT_THEORY":"SGP4","OBJECT_ID":"2020-035AM","TLE_LINE2":"2 45692  53.0563  26.1137 0001125  87.3922 272.7195 15.06393740 78152","CLASSIFICATION_TYPE":"U","GP_ID":"188102804","COUNTRY_CODE":"US","MEAN_ANOMALY":"272.7195","MEAN_MOTION_DOT":"-0.00000381","ARG_OF_PERICENTER":"87.3922","TIME_SYSTEM":"UTC"},{"ECCENTRICITY":"0.00011430","SEMIMAJOR_AXIS":"6925.364","RA_OF_ASC_NODE":"25.7297","ELEMENT_SET_NO":"999","FILE":"3182768","DECAY_DATE":null,"REF_FRAME":"TEME","MEAN_MOTION_DDOT":"0.0000000000000","SITE":"AFETR","OBJECT_TYPE":"PAYLOAD","PERIAPSIS":"546.437","PERIOD":"95.592","NORAD_CAT_ID":"45693","RCS_SIZE":"LARGE","TLE_LINE1":"1 45693U 20035AN  21297.71370044 -.00000455  00000-0 -11675-4 0  9994","OBJECT_NAME":"STARLINK-1417","INCLINATION":"53.0560","MEAN_MOTION":"15.06394947","EPOCH":"2021-10-24T17:07:43.718016","REV_AT_EPOCH":"7816","LAUNCH_DATE":"2020-06-04","BSTAR":"-0.00001167500000","APOAPSIS":"548.021","EPHEMERIS_TYPE":"0","CENTER_NAME":"EARTH","TLE_LINE2":"2 45693  53.0560  25.7297 0001143  95.6425 264.4695 15.06394947 78166","MEAN_ELEMENT_THEORY":"SGP4","OBJECT_ID":"2020-035AN","ARG_OF_PERICENTER":"95.6425","MEAN_MOTION_DOT":"-0.00000455","MEAN_ANOMALY":"264.4695","GP_ID":"188103054","COUNTRY_CODE":"US","CLASSIFICATION_TYPE":"U","TIME_SYSTEM":"UTC"},{"MEAN_MOTION_DDOT":"0.0000000000000","SITE":"AFETR","FILE":"3182768","REF_FRAME":"TEME","DECAY_DATE":null,"ELEMENT_SET_NO":"999","SEMIMAJOR_AXIS":"6925.349","RA_OF_ASC_NODE":"25.9889","ECCENTRICITY":"0.00010880","OBJECT_TYPE":"PAYLOAD","RCS_SIZE":"LARGE","PERIOD":"95.592","NORAD_CAT_ID":"45694","PERIAPSIS":"546.461","INCLINATION":"53.0555","OBJECT_NAME":"STARLINK-1419","TLE_LINE1":"1 45694U 20035AP  21297.65471972  .00000662  00000-0  63343-4 0  9997","EPOCH":"2021-10-24T15:42:47.783808","MEAN_MOTION":"15.06399776","REV_AT_EPOCH":"7815","APOAPSIS":"547.968","BSTAR":"0.00006334300000","LAUNCH_DATE":"2020-06-04","TIME_SYSTEM":"UTC","ARG_OF_PERICENTER":"98.2858","MEAN_MOTION_DOT":"0.00000662","COUNTRY_CODE":"US","GP_ID":"188104306","MEAN_ANOMALY":"261.8254","CLASSIFICATION_TYPE":"U","TLE_LINE2":"2 45694  53.0555  25.9889 0001088  98.2858 261.8254 15.06399776 78153","MEAN_ELEMENT_THEORY":"SGP4","OBJECT_ID":"2020-035AP","EPHEMERIS_TYPE":"0","CENTER_NAME":"EARTH"},{"PERIAPSIS":"546.501","PERIOD":"95.592","NORAD_CAT_ID":"45695","RCS_SIZE":"LARGE","TLE_LINE1":"1 45695U 20035AQ  21297.58284468 -.00000112  00000-0  11352-4 0  9996","OBJECT_NAME":"STARLINK-1420","INCLINATION":"53.0554","ECCENTRICITY":"0.00010410","SEMIMAJOR_AXIS":"6925.357","RA_OF_ASC_NODE":"6.3121","ELEMENT_SET_NO":"999","FILE":"3182768","DECAY_DATE":null,"REF_FRAME":"TEME","MEAN_MOTION_DDOT":"0.0000000000000","SITE":"AFETR","OBJECT_TYPE":"PAYLOAD","LAUNCH_DATE":"2020-06-04","BSTAR":"0.00001135200000","APOAPSIS":"547.943","EPHEMERIS_TYPE":"0","CENTER_NAME":"EARTH","TLE_LINE2":"2 45695  53.0554   6.3121 0001041  90.0299 270.0809 15.06397321 78436","MEAN_ELEMENT_THEORY":"SGP4","OBJECT_ID":"2020-035AQ","ARG_OF_PERICENTER":"90.0299","MEAN_MOTION_DOT":"-0.00000112","CLASSIFICATION_TYPE":"U","GP_ID":"188104557","COUNTRY_CODE":"US","MEAN_ANOMALY":"270.0809","TIME_SYSTEM":"UTC","MEAN_MOTION":"15.06397321","EPOCH":"2021-10-24T13:59:17.780352","REV_AT_EPOCH":"7843"}];
